TERRESTAR-1             
1 35496U 09035A   15341.02943751 -.00000050  00000-0  00000+0 0  9994
2 35496   3.3714 335.2091 0003397 282.2079  77.6714  1.00272133 23604
ASIASAT 5               
1 35696U 09042A   15343.43401550 -.00000296  00000-0  00000+0 0  9999
2 35696   0.0524 112.0065 0001462 129.6637  92.9633  1.00272396 23135
JCSAT-RA (JCSAT-12)     
1 35755U 09044A   15342.67255608 -.00000334  00000-0  00000+0 0  9996
2 35755   0.0621  46.1240 0001360 174.1360 226.9232  1.00271236 23121
OPTUS D3                
1 35756U 09044B   15341.75320537 -.00000138  00000-0  00000-0 0  9992
2 35756   0.0561  35.7349 0003424 247.8765 219.7448  1.00270638 23022
PALAPA D                
1 35812U 09046A   15342.47289163 -.00000347  00000-0  00000+0 0  9997
2 35812   0.0258 352.6199 0002397 284.8981  82.4548  1.00270566 23139
NIMIQ 5                 
1 35873U 09050A   15341.33763380 -.00000248  00000-0  00000+0 0  9991
2 35873   0.0459  96.2270 0001863 157.2871 231.1372  1.00271700 22800
AMAZONAS 2              
1 35942U 09054A   15342.48467718 -.00000272  00000-0  00000+0 0  9992
2 35942   0.0509 132.9361 0002962  77.2526 340.2426  1.00273811 22662
COMSATBW-1              
1 35943U 09054B   15342.85289206  .00000035  00000-0  00000+0 0  9994
2 35943   0.0518  80.3245 0002725 192.0838 174.9153  1.00272687 22725
NSS-12                  
1 36032U 09058A   15340.63300381  .00000078  00000-0  00000-0 0  9998
2 36032   0.0394  56.9771 0002780 197.9203 105.0924  1.00272335 22395
THOR 6                  
1 36033U 09058B   15343.07837161  .00000002  00000-0  00000+0 0  9997
2 36033   0.0590 123.3931 0001907 160.5771 180.9206  1.00272805 22439
INTELSAT 14 (IS-14)     
1 36097U 09064A   15340.91579416 -.00000266  00000-0  00000+0 0  9993
2 36097   0.0208  11.0963 0002759 251.8689  97.0034  1.00269054 22159
EUTELSAT 36B            
1 36101U 09065A   15343.11618012  .00000167  00000-0  00000+0 0  9990
2 36101   0.0636 354.8530 0004311 270.1843 250.2448  1.00271527 22273
INTELSAT 15 (IS-15)     
1 36106U 09067A   15342.78837164 -.00000174  00000-0  00000+0 0  9999
2 36106   0.0134 330.2525 0002656 305.3515 170.5939  1.00271894 22063
DIRECTV 12              
1 36131U 09075A   15342.99865718 -.00000093  00000-0  00000+0 0  9995
2 36131   0.0478 158.3703 0000769 209.9696 325.8370  1.00278670 21849
BEIDOU G1               
1 36287U 10001A   15340.87437146 -.00000278  00000-0  10000-3 0  9993
2 36287   1.5595   5.2659 0005576 222.2929 302.4906  1.00266513 21619
RADUGA-1M 2             
1 36358U 10002A   15340.76268293 -.00000177  00000-0  00000+0 0  9999
2 36358   0.0094 317.7360 0003432 342.1073 134.9615  1.00271906 21456
SDO                     
1 36395U 10005A   15341.50764639 -.00000011  00000-0  00000+0 0  9998
2 36395  28.2438 150.5441 0002290 160.4651 206.1646  1.00271756 21480
INTELSAT 16 (IS-16)     
1 36397U 10006A   15342.02501796 -.00000235  00000-0  00000+0 0  9990
2 36397   0.0347  92.4245 0003779 186.5976  90.2588  1.00270625 21196
GOES 15                 
1 36411U 10008A   15342.16319146  .00000100  00000-0  00000+0 0  9990
2 36411   0.1977 263.9071 0002821 354.3364 101.7477  1.00276343 21141
ECHOSTAR 14             
1 36499U 10010A   15342.55959397  .00000011  00000-0  00000+0 0  9991
2 36499   0.0103 306.2709 0002725 305.6681 267.6272  1.00272432 20992
SES-1                   
1 36516U 10016A   15342.55748292 -.00000104  00000-0  00000+0 0  9991
2 36516   0.0224  25.0777 0002001 252.6159 259.0106  1.00271793 20591
ASTRA 3B                
1 36581U 10021A   15343.11589807  .00000148  00000-0  00000+0 0  9994
2 36581   0.0534   9.1195 0002788 243.9767 249.6778  1.00273845 20123
COMSATBW-2              
1 36582U 10021B   15342.15302515  .00000099  00000-0  00000+0 0  9992
2 36582   0.0090 297.9150 0003047 348.6634 218.3334  1.00275839 20445
BEIDOU G3               
1 36590U 10024A   15343.02299775 -.00000344  00000-0  00000+0 0  9998
2 36590   1.4158  26.1398 0004832 280.9350 249.1927  1.00268360 20245
BADR-5                  
1 36592U 10025A   15342.98191741  .00000156  00000-0  00000+0 0  9999
2 36592   0.0163  27.4052 0003691 197.7676 231.7517  1.00275065 20362
COMS 1                  
1 36744U 10032A   15342.27859494 -.00000334  00000-0  00000+0 0  9993
2 36744   0.0184 149.3415 0000578   1.6217 154.2912  1.00271623 20102
ARABSAT-5A              
1 36745U 10032B   15343.11605815  .00000165  00000-0  00000+0 0  9995
2 36745   0.0531   0.2546 0002919 260.2730 249.2924  1.00270317 20098
ECHOSTAR 15             
1 36792U 10034A   15343.49681064 -.00000270  00000-0  00000+0 0  9998
2 36792   0.0360  39.8223 0001669 216.4782 298.8514  1.00273052 19868
BEIDOU IGSO 1           
1 36828U 10036A   15342.47688414 -.00000058  00000-0  10000-3 0  9992
2 36828  54.2643 199.0125 0041461 213.9476 313.9824  1.00293836 19673
NILESAT 201             
1 36830U 10037A   15342.19595841 -.00000048  00000-0  00000+0 0  9990
2 36830   0.0244 171.0559 0003179  78.3158 250.7995  1.00269535 19741
RASCOM-QAF 1R           
1 36831U 10037B   15341.78007919  .00000028  00000-0  00000+0 0  9996
2 36831   0.0114  35.0342 0004561 227.9012  97.0346  1.00271301 19740
CHINASAT 6A (ZX 6A)     
1 37150U 10042A   15341.95985479 -.00000344  00000-0  00000+0 0  9994
2 37150   0.0562 119.4639 0001462 148.8221 278.7547  1.00272829 19352
XM-5                    
1 37185U 10053A   15341.11054740 -.00000197  00000-0  00000-0 0  9997
2 37185   0.0134 311.8817 0000113 168.9683 269.3159  1.00272410 18932
BSAT-3B                 
1 37207U 10056B   15341.89414773 -.00000341  00000-0  00000-0 0  9997
2 37207   0.0506 334.5189 0004609 313.7110 219.8884  1.00272776 13747
BEIDOU G4               
1 37210U 10057A   15343.53269185 -.00000101  00000-0  00000+0 0  9993
2 37210   0.8134  43.1994 0008396 181.2224 205.2344  1.00271486 18757
SKYTERRA 1              
1 37218U 10061A   15340.97649390 -.00000113  00000-0  00000+0 0  9994
2 37218   3.9082 325.7431 0004978 210.6844 149.2540  1.00271972 18679
ZHONGXING-20A           
1 37234U 10064A   15342.65528777 -.00000326  00000-0  00000+0 0  9993
2 37234   0.0388 257.2861 0004541  58.2892 127.4696  1.00270984 18497
HYLAS 1                 
1 37237U 10065A   15342.29837159 -.00000223  00000-0  00000+0 0  9990
2 37237   0.0416  44.9243 0002206 235.1707 230.5618  1.00269945 18466
INTELSAT 17 (IS-17)     
1 37238U 10065B   15342.88741341  .00000010  00000-0  00000+0 0  9996
2 37238   0.0222  16.5243 0003067 249.6568 196.5838  1.00271739 18388
BEIDOU IGSO 2           
1 37256U 10068A   15342.56933623 -.00000226  00000-0  10000-3 0  9995
2 37256  53.8087 317.7248 0042467 208.3274 232.5471  1.00300820 18262
EUTELSAT KA-SAT 9A      
1 37258U 10069A   15342.12430458  .00000072  00000-0  00000+0 0  9991
2 37258   0.0448 293.2500 0002131 118.5133  78.5898  1.00273298 18278
HISPASAT 1E             
1 37264U 10070A   15341.34053468 -.00000207  00000-0  00000-0 0  9997
2 37264   0.0665 108.5842 0003270 114.0113 305.8015  1.00271648 14637
KOREASAT 6              
1 37265U 10070B   15342.88914691 -.00000351  00000-0  00000+0 0  9991
2 37265   0.0102 325.3993 0002052 304.4916 243.5335  1.00274715 18155
ELEKTRO-L 1 (GOMS 2)    
1 37344U 11001A   15342.08177832 -.00000089  00000-0  00000+0 0  9992
2 37344   1.3245  80.0913 0002630  96.5456   5.4920  1.00270727 17920
BEIDOU IGSO 3           
1 37384U 11013A   15342.58939027 -.00000198  00000-0  10000-3 0  9992
2 37384  57.1468  78.7887 0025576 197.7504 132.8936  1.00264361 17138
INTELSAT NEW DAWN       
1 37392U 11016A   15341.13859196  .00000164  00000-0  00000-0 0  9990
2 37392   0.0163 351.3728 0000844 312.3919 214.5489  1.00274519 14747
YAHSAT 1A               
1 37393U 11016B   15341.81955126  .00000110  00000-0  00000-0 0  9997
2 37393   0.0151 310.9127 0002832 319.1868 153.7254  1.00273397  3853
TELSTAR 14R             
1 37602U 11021A   15342.41794541 -.00000270  00000-0  00000+0 0  9992
2 37602   0.0389  53.7820 0002778 201.7494 268.7900  1.00270805 17245
GSAT-8                  
1 37605U 11022A   15341.13076957  .00000092  00000-0  00000-0 0  9990
2 37605   0.0541  97.8909 0008296 166.6440 273.2425  1.00273242 14682
ST-2                    
1 37606U 11022B   15342.78806932 -.00000203  00000-0  00000+0 0  9991
2 37606   0.0158 316.4369 0001994 296.9952 195.5203  1.00281849 16718
CHINASAT 10 (ZX 10)     
1 37677U 11026A   15343.02299775 -.00000341  00000-0  00000+0 0  9995
2 37677   0.0024  17.5963 0003951 222.9773 315.6777  1.00269514 16437
TIANLIAN 1-02           
1 37737U 11032A   15342.33957873 -.00000038  00000-0  00000+0 0  9995
2 37737   1.4586  79.8366 0033363 190.2019  95.9839  1.00272758 16172
GSAT-12                 
1 37746U 11034A   15343.54082744 -.00000153  00000-0  00000+0 0  9995
2 37746   0.0617  96.8853 0002785  28.5704 230.2080  1.00270978 16433
SES-3                   
1 37748U 11035A   15343.46107546 -.00000090  00000-0  00000+0 0  9997
2 37748   0.0224 314.3271 0002387 317.0106 229.5454  1.00272200 16167
KAZSAT-2                
1 37749U 11035B   15342.91107530 -.00000186  00000-0  00000+0 0  9996
2 37749   0.0028 316.8461 0001515   1.4908 173.4711  1.00268944 16033
BEIDOU IGSO 4           
1 37763U 11038A   15342.43644160 -.00000007  00000-0  10000-3 0  9994
2 37763  54.5749 201.2875 0034381 200.7647 287.9102  1.00277672 16101
ASTRA 1N                
1 37775U 11041A   15342.02094213  .00000130  00000-0  00000+0 0  9995
2 37775   0.0787  36.9502 0001771 296.5040 129.7826  1.00275125 15857
BSAT-3C (JCSAT-110R)    
1 37776U 11041B   15343.02299775 -.00000339  00000-0  00000+0 0  9999
2 37776   0.0153  19.9007 0000194 270.2977 265.5079  1.00269697 16006
PAKSAT-1R               
1 37779U 11042A   15342.21387817  .00000164  00000-0  00000+0 0  9993
2 37779   0.0066 141.2150 0002713 112.1231 298.2730  1.00275473 15731
CHINASAT 1A (ZX 1A)     
1 37804U 11047A   15341.75775237 -.00000328  00000-0  00000+0 0  9995
2 37804   0.0193 140.0577 0003343 165.3398 173.4651  1.00272614 15533
